[{"OBJECT_NAME":"STARLINK-36404","OBJECT_ID":"2026-022S","EPOCH":"2026-03-09T22:00:01.999584","MEAN_MOTION":15.63480189,"ECCENTRICITY":0.00017208,"INCLINATION":97.2848,"RA_OF_ASC_NODE":102.9106,"ARG_OF_PERICENTER":71.412,"MEAN_ANOMALY":339.7208,"EPHEMERIS_TYPE":0,"CLASSIFICATION_TYPE":"U","NORAD_CAT_ID":67664,"ELEMENT_SET_NO":999,"REV_AT_EPOCH":608,"BSTAR":-0.023644259,"MEAN_MOTION_DOT":-0.01928389,"MEAN_MOTION_DDOT":0},{"OBJECT_NAME":"CZ-4B DEB","OBJECT_ID":"1999-057LT","EPOCH":"2026-03-09T05:40:33.690720","MEAN_MOTION":15.44450649,"ECCENTRICITY":0.00086655,"INCLINATION":98.1678,"RA_OF_ASC_NODE":170.1554,"ARG_OF_PERICENTER":157.0134,"MEAN_ANOMALY":265.0486,"EPHEMERIS_TYPE":0,"CLASSIFICATION_TYPE":"U","NORAD_CAT_ID":26661,"ELEMENT_SET_NO":999,"REV_AT_EPOCH":36726,"BSTAR":0.0047328441,"MEAN_MOTION_DOT":0.00225342,"MEAN_MOTION_DDOT":0}]
